[{"OBJECT_NAME":"ONEWEB-0388","OBJECT_ID":"2021-090AM","EPOCH":"2026-03-09T17:00:35.374464","MEAN_MOTION":13.1972528,"ECCENTRICITY":0.00015507,"INCLINATION":87.9226,"RA_OF_ASC_NODE":324.7919,"ARG_OF_PERICENTER":78.5891,"MEAN_ANOMALY":281.5416,"EPHEMERIS_TYPE":0,"CLASSIFICATION_TYPE":"U","NORAD_CAT_ID":49314,"ELEMENT_SET_NO":999,"REV_AT_EPOCH":21329,"BSTAR":-0.00066582135,"MEAN_MOTION_DOT":-2.54e-6,"MEAN_MOTION_DDOT":0},{"OBJECT_NAME":"SL-14 DEB","OBJECT_ID":"1991-056DK","EPOCH":"2026-03-08T13:22:40.137600","MEAN_MOTION":13.34873945,"ECCENTRICITY":0.00896209,"INCLINATION":82.5589,"RA_OF_ASC_NODE":166.4667,"ARG_OF_PERICENTER":161.3371,"MEAN_ANOMALY":199.1084,"EPHEMERIS_TYPE":0,"CLASSIFICATION_TYPE":"U","NORAD_CAT_ID":47085,"ELEMENT_SET_NO":999,"REV_AT_EPOCH":26030,"BSTAR":0.0015174086,"MEAN_MOTION_DOT":7.94e-6,"MEAN_MOTION_DDOT":0}]
